{"type": "FeatureCollection", "features": [ {"type": "Feature", "properties": {"norad_id": 37993, "name": "COSMOS 2251 DEB", "group": "cosmos-2251-debris", "lat": -72.3964620621937, "lon": 70.85676072869778, "alt_km": 685.8283274777586, "timestamp": "2025-12-02T13:52:17.659304+00:00", "meta": {"OBJECT_NAME": "COSMOS 2251 DEB", "OBJECT_ID": "1993-036BQU", "EPOCH": "2025-12-01T21:52:04.124640", "MEAN_MOTION": 14.59713379, "ECCENTRICITY": 0.0022073, "INCLINATION": 74.0242, "RA_OF_ASC_NODE": 187.5873, "ARG_OF_PERICENTER": 277.3102, "MEAN_ANOMALY": 82.5554, "EPHEMERIS_TYPE": 0, "CLASSIFICATION_TYPE": "U", "NORAD_CAT_ID": 37993, "ELEMENT_SET_NO": 999, "REV_AT_EPOCH": 65159, "BSTAR": 0.0013360965, "MEAN_MOTION_DOT": 6.369e-05, "MEAN_MOTION_DDOT": 0}, "tle": {"line1": "1 37993U 93036BQU 25335.91115885  .00006369  00000+0  13361-2 0  9997", "line2": "2 37993  74.0242 187.5873 0022073 277.3102  82.5554 14.59713379651591"}}, "geometry": {"type": "Point", "coordinates": [70.85676072869778, -72.3964620621937]}}, {"type": "Feature", "properties": {"norad_id": 37994, "name": "COSMOS 2251 DEB", "group": "cosmos-2251-debris", "lat": 8.38728684655118, "lon": -63.12776877974041, "alt_km": 745.4569989359688, "timestamp": "2025-12-02T13:52:17.659315+00:00", "meta": {"OBJECT_NAME": "COSMOS 2251 DEB", "OBJECT_ID": "1993-036BQV", "EPOCH": "2025-12-02T03:49:27.846912", "MEAN_MOTION": 14.39580246, "ECCENTRICITY": 0.00224268, "INCLINATION": 74.0357, "RA_OF_ASC_NODE": 295.226, "ARG_OF_PERICENTER": 16.945, "MEAN_ANOMALY": 343.2449, "EPHEMERIS_TYPE": 0, "CLASSIFICATION_TYPE": "U", "NORAD_CAT_ID": 37994, "ELEMENT_SET_NO": 999, "REV_AT_EPOCH": 76912, "BSTAR": 0.00044304129, "MEAN_MOTION_DOT": 1.361e-05, "MEAN_MOTION_DDOT": 0}, "tle": {"line1": "1 37994U 93036BQV 25336.15935008  .00001361  00000+0  44304-3 0  9991", "line2": "2 37994  74.0357 295.2260 0022426  16.9450 343.2449 14.39580246769123"}}, "geometry": {"type": "Point", "coordinates": [-63.12776877974041, 8.38728684655118]}}, {"type": "Feature", "properties": {"norad_id": 37996, "name": "COSMOS 2251 DEB", "group": "cosmos-2251-debris", "lat": -72.1370166958689, "lon": 103.4970315879878, "alt_km": 813.1076673631751, "timestamp": "2025-12-02T13:52:17.659325+00:00", "meta": {"OBJECT_NAME": "COSMOS 2251 DEB", "OBJECT_ID": "1993-036BQX", "EPOCH": "2025-11-16T18:35:00.708864", "MEAN_MOTION": 14.09591608, "ECCENTRICITY": 0.02219827, "INCLINATION": 74.0658, "RA_OF_ASC_NODE": 248.8308, "ARG_OF_PERICENTER": 5.4709, "MEAN_ANOMALY": 354.8776, "EPHEMERIS_TYPE": 0, "CLASSIFICATION_TYPE": "U", "NORAD_CAT_ID": 37996, "ELEMENT_SET_NO": 999, "REV_AT_EPOCH": 55769, "BSTAR": 0.0096790999, "MEAN_MOTION_DOT": 0.00021331, "MEAN_MOTION_DDOT": 0}, "tle": {"line1": "1 37996U 93036BQX 25320.77431376  .00021331  00000+0  96791-2 0  9998", "line2": "2 37996  74.0658 248.8308 0221982   5.4709 354.8776 14.09591608557693"}}, "geometry": {"type": "Point", "coordinates": [103.4970315879878, -72.1370166958689]}}, {"type": "Feature", "properties": {"norad_id": 37998, "name": "COSMOS 2251 DEB", "group": "cosmos-2251-debris", "lat": 54.382358016660596, "lon": -82.40781868640441, "alt_km": 734.6590773115377, "timestamp": "2025-12-02T13:52:17.659335+00:00", "meta": {"OBJECT_NAME": "COSMOS 2251 DEB", "OBJECT_ID": "1993-036BQZ", "EPOCH": "2025-11-29T12:31:01.771392", "MEAN_MOTION": 14.45395467, "ECCENTRICITY": 0.00197878, "INCLINATION": 74.0369, "RA_OF_ASC_NODE": 259.7366, "ARG_OF_PERICENTER": 336.2714, "MEAN_ANOMALY": 23.753, "EPHEMERIS_TYPE": 0, "CLASSIFICATION_TYPE": "U", "NORAD_CAT_ID": 37998, "ELEMENT_SET_NO": 999, "REV_AT_EPOCH": 64096, "BSTAR": 0.00059073677, "MEAN_MOTION_DOT": 2.057e-05, "MEAN_MOTION_DDOT": 0}, "tle": {"line1": "1 37998U 93036BQZ 25333.52154828  .00002057  00000+0  59074-3 0  9999", "line2": "2 37998  74.0369 259.7366 0019787 336.2714  23.7530 14.45395467640966"}}, "geometry": {"type": "Point", "coordinates": [-82.40781868640441, 54.382358016660596]}}, {"type": "Feature", "properties": {"norad_id": 38001, "name": "COSMOS 2251 DEB", "group": "cosmos-2251-debris", "lat": -46.259380342235985, "lon": -10.195695800434128, "alt_km": 627.1828387721189, "timestamp": "2025-12-02T13:52:17.659345+00:00", "meta": {"OBJECT_NAME": "COSMOS 2251 DEB", "OBJECT_ID": "1993-036BRC", "EPOCH": "2025-12-01T22:54:46.080864", "MEAN_MOTION": 14.78884887, "ECCENTRICITY": 0.0065155, "INCLINATION": 73.9989, "RA_OF_ASC_NODE": 153.583, "ARG_OF_PERICENTER": 305.0711, "MEAN_ANOMALY": 207.3288, "EPHEMERIS_TYPE": 0, "CLASSIFICATION_TYPE": "U", "NORAD_CAT_ID": 38001, "ELEMENT_SET_NO": 999, "REV_AT_EPOCH": 74548, "BSTAR": 0.00075739736, "MEAN_MOTION_DOT": 5.752e-05, "MEAN_MOTION_DDOT": 0}, "tle": {"line1": "1 38001U 93036BRC 25335.95470001  .00005752  00000+0  75740-3 0  9991", "line2": "2 38001  73.9989 153.5830 0065155 305.0711 207.3288 14.78884887745484"}}, "geometry": {"type": "Point", "coordinates": [-10.195695800434128, -46.259380342235985]}}, {"type": "Feature", "properties": {"norad_id": 38006, "name": "COSMOS 2251 DEB", "group": "cosmos-2251-debris", "lat": -23.205941788729415, "lon": -115.66197830331397, "alt_km": 796.2434020540659, "timestamp": "2025-12-02T13:52:17.659355+00:00", "meta": {"OBJECT_NAME": "COSMOS 2251 DEB", "OBJECT_ID": "1993-036BRH", "EPOCH": "2025-12-01T12:00:57.044736", "MEAN_MOTION": 14.45530874, "ECCENTRICITY": 0.00745141, "INCLINATION": 73.8466, "RA_OF_ASC_NODE": 59.2312, "ARG_OF_PERICENTER": 10.3044, "MEAN_ANOMALY": 349.9618, "EPHEMERIS_TYPE": 0, "CLASSIFICATION_TYPE": "U", "NORAD_CAT_ID": 38006, "ELEMENT_SET_NO": 999, "REV_AT_EPOCH": 62797, "BSTAR": 0.0024598906, "MEAN_MOTION_DOT": 8.963e-05, "MEAN_MOTION_DDOT": 0}, "tle": {"line1": "1 38006U 93036BRH 25335.50066024  .00008963  00000+0  24599-2 0  9995", "line2": "2 38006  73.8466  59.2312 0074514  10.3044 349.9618 14.45530874627970"}}, "geometry": {"type": "Point", "coordinates": [-115.66197830331397, -23.205941788729415]}}, {"type": "Feature", "properties": {"norad_id": 38054, "name": "COSMOS 2251 DEB", "group": "cosmos-2251-debris", "lat": 48.07061876006366, "lon": 83.73495523777943, "alt_km": 1200.9983316136468, "timestamp": "2025-12-02T13:52:17.659366+00:00", "meta": {"OBJECT_NAME": "COSMOS 2251 DEB", "OBJECT_ID": "1993-036BRL", "EPOCH": "2025-11-26T08:10:24.945600", "MEAN_MOTION": 13.62179263, "ECCENTRICITY": 0.03616303, "INCLINATION": 73.9545, "RA_OF_ASC_NODE": 292.6204, "ARG_OF_PERICENTER": 273.8545, "MEAN_ANOMALY": 241.8921, "EPHEMERIS_TYPE": 0, "CLASSIFICATION_TYPE": "U", "NORAD_CAT_ID": 38054, "ELEMENT_SET_NO": 999, "REV_AT_EPOCH": 66956, "BSTAR": 0.0037967706, "MEAN_MOTION_DOT": 4.525e-05, "MEAN_MOTION_DDOT": 0}, "tle": {"line1": "1 38054U 93036BRL 25330.34056650  .00004525  00000+0  37968-2 0  9993", "line2": "2 38054  73.9545 292.6204 0361630 273.8545 241.8921 13.62179263669562"}}, "geometry": {"type": "Point", "coordinates": [83.73495523777943, 48.07061876006366]}}, {"type": "Feature", "properties": {"norad_id": 38055, "name": "COSMOS 2251 DEB", "group": "cosmos-2251-debris", "lat": -15.585266979002252, "lon": 51.29629439829193, "alt_km": 687.2716790504828, "timestamp": "2025-12-02T13:52:17.659376+00:00", "meta": {"OBJECT_NAME": "COSMOS 2251 DEB", "OBJECT_ID": "1993-036BRM", "EPOCH": "2025-11-30T11:23:37.489344", "MEAN_MOTION": 14.76741647, "ECCENTRICITY": 0.00655995, "INCLINATION": 74.0094, "RA_OF_ASC_NODE": 230.8354, "ARG_OF_PERICENTER": 1.0653, "MEAN_ANOMALY": 178.44, "EPHEMERIS_TYPE": 0, "CLASSIFICATION_TYPE": "U", "NORAD_CAT_ID": 38055, "ELEMENT_SET_NO": 999, "REV_AT_EPOCH": 60501, "BSTAR": 0.0010104465, "MEAN_MOTION_DOT": 7.307e-05, "MEAN_MOTION_DDOT": 0}, "tle": {"line1": "1 38055U 93036BRM 25334.47473946  .00007307  00000+0  10104-2 0  9997", "line2": "2 38055  74.0094 230.8354 0065599   1.0653 178.4400 14.76741647605014"}}, "geometry": {"type": "Point", "coordinates": [51.29629439829193, -15.585266979002252]}}, {"type": "Feature", "properties": {"norad_id": 38060, "name": "COSMOS 2251 DEB", "group": "cosmos-2251-debris", "lat": 0.02440394368559973, "lon": 134.80454275773542, "alt_km": 701.4520605454063, "timestamp": "2025-12-02T13:52:17.659386+00:00", "meta": {"OBJECT_NAME": "COSMOS 2251 DEB", "OBJECT_ID": "1993-036BRS", "EPOCH": "2025-11-30T16:46:11.567136", "MEAN_MOTION": 14.63742552, "ECCENTRICITY": 0.0057629, "INCLINATION": 74.0424, "RA_OF_ASC_NODE": 318.4162, "ARG_OF_PERICENTER": 67.815, "MEAN_ANOMALY": 292.9119, "EPHEMERIS_TYPE": 0, "CLASSIFICATION_TYPE": "U", "NORAD_CAT_ID": 38060, "ELEMENT_SET_NO": 999, "REV_AT_EPOCH": 71788, "BSTAR": 0.00051174098, "MEAN_MOTION_DOT": 2.701e-05, "MEAN_MOTION_DDOT": 0}, "tle": {"line1": "1 38060U 93036BRS 25334.69874499  .00002701  00000+0  51174-3 0  9991", "line2": "2 38060  74.0424 318.4162 0057629  67.8150 292.9119 14.63742552717884"}}, "geometry": {"type": "Point", "coordinates": [134.80454275773542, 0.02440394368559973]}}, {"type": "Feature", "properties": {"norad_id": 38062, "name": "COSMOS 2251 DEB", "group": "cosmos-2251-debris", "lat": 65.58451611218143, "lon": 91.80158418540768, "alt_km": 571.5390642827224, "timestamp": "2025-12-02T13:52:17.659396+00:00", "meta": {"OBJECT_NAME": "COSMOS 2251 DEB", "OBJECT_ID": "1993-036BRU", "EPOCH": "2025-11-30T17:10:53.743584", "MEAN_MOTION": 14.93896276, "ECCENTRICITY": 0.00118795, "INCLINATION": 74.0086, "RA_OF_ASC_NODE": 314.734, "ARG_OF_PERICENTER": 83.9086, "MEAN_ANOMALY": 94.2953, "EPHEMERIS_TYPE": 0, "CLASSIFICATION_TYPE": "U", "NORAD_CAT_ID": 38062, "ELEMENT_SET_NO": 999, "REV_AT_EPOCH": 62850, "BSTAR": 0.0021975764, "MEAN_MOTION_DOT": 0.00023445, "MEAN_MOTION_DDOT": 0}, "tle": {"line1": "1 38062U 93036BRU 25334.71589981  .00023445  00000+0  21976-2 0  9999", "line2": "2 38062  74.0086 314.7340 0011879  83.9086  94.2953 14.93896276628506"}}, "geometry": {"type": "Point", "coordinates": [91.80158418540768, 65.58451611218143]}}]}